[Satellite]
VERSION=1.1
NAME=STARLINK-4755
NICKNAME=STARLINK-4755
TLE1=1 53851U 22114AK  22291.33334491 -.00024006  00000+0 -16732-3 0  9993
TLE2=2 53851  53.2139 113.8203 0001024 104.4603 248.3191 15.73172210  5181
STATUS=0
